{"type": "FeatureCollection", "features": [ {"type": "Feature", "properties": {"norad_id": 42741, "name": "EUTELSAT 172B", "group": "eutelsat", "lat": -0.011174117355472715, "lon": 9.08817270128496, "alt_km": 35786.52059107844, "timestamp": "2025-12-12T07:43:20.175131+00:00", "meta": {"OBJECT_NAME": "EUTELSAT 172B", "OBJECT_ID": "2017-029B", "EPOCH": "2025-12-11T21:10:38.515008", "MEAN_MOTION": 1.00269803, "ECCENTRICITY": 5.68e-06, "INCLINATION": 0.0365, "RA_OF_ASC_NODE": 150.651, "ARG_OF_PERICENTER": 154.042, "MEAN_ANOMALY": 265.7964, "EPHEMERIS_TYPE": 0, "CLASSIFICATION_TYPE": "U", "NORAD_CAT_ID": 42741, "ELEMENT_SET_NO": 999, "REV_AT_EPOCH": 3185, "BSTAR": 0, "MEAN_MOTION_DOT": 2e-08, "MEAN_MOTION_DDOT": 0}, "tle": {"line1": "1 42741U 17029B   25345.88239022  .00000002  00000+0  00000+0 0  9990", "line2": "2 42741   0.0365 150.6510 0000056 154.0420 265.7964  1.00269803 31854"}}, "geometry": {"type": "Point", "coordinates": [9.08817270128496, -0.011174117355472715]}}, {"type": "Feature", "properties": {"norad_id": 44334, "name": "EUTELSAT 7C", "group": "eutelsat", "lat": 0.01400159790145876, "lon": -155.9422693854274, "alt_km": 35775.52515418902, "timestamp": "2025-12-12T07:43:20.175145+00:00", "meta": {"OBJECT_NAME": "EUTELSAT 7C", "OBJECT_ID": "2019-034B", "EPOCH": "2025-12-11T22:06:18.182592", "MEAN_MOTION": 1.00271492, "ECCENTRICITY": 0.00032671, "INCLINATION": 0.0722, "RA_OF_ASC_NODE": 178.2592, "ARG_OF_PERICENTER": 65.5701, "MEAN_ANOMALY": 175.605, "EPHEMERIS_TYPE": 0, "CLASSIFICATION_TYPE": "U", "NORAD_CAT_ID": 44334, "ELEMENT_SET_NO": 999, "REV_AT_EPOCH": 495, "BSTAR": 0, "MEAN_MOTION_DOT": 5.7e-07, "MEAN_MOTION_DDOT": 0}, "tle": {"line1": "1 44334U 19034B   25345.92104378  .00000057  00000+0  00000+0 0  9998", "line2": "2 44334   0.0722 178.2592 0003267  65.5701 175.6050  1.00271492  4955"}}, "geometry": {"type": "Point", "coordinates": [-155.9422693854274, 0.01400159790145876]}}, {"type": "Feature", "properties": {"norad_id": 44624, "name": "EUTELSAT 5 WEST B", "group": "eutelsat", "lat": -0.036131207671712455, "lon": -167.93956931037798, "alt_km": 35781.08932392326, "timestamp": "2025-12-12T07:43:20.175157+00:00", "meta": {"OBJECT_NAME": "EUTELSAT 5 WEST B", "OBJECT_ID": "2019-067A", "EPOCH": "2025-12-11T22:02:56.005728", "MEAN_MOTION": 1.00271734, "ECCENTRICITY": 0.00033829, "INCLINATION": 0.0624, "RA_OF_ASC_NODE": 347.7263, "ARG_OF_PERICENTER": 273.9172, "MEAN_ANOMALY": 144.961, "EPHEMERIS_TYPE": 0, "CLASSIFICATION_TYPE": "U", "NORAD_CAT_ID": 44624, "ELEMENT_SET_NO": 999, "REV_AT_EPOCH": 2255, "BSTAR": 0, "MEAN_MOTION_DOT": -3.4e-07, "MEAN_MOTION_DDOT": 0}, "tle": {"line1": "1 44624U 19067A   25345.91870377 -.00000034  00000+0  00000+0 0  9990", "line2": "2 44624   0.0624 347.7263 0003382 273.9172 144.9610  1.00271734 22557"}}, "geometry": {"type": "Point", "coordinates": [-167.93956931037798, -0.036131207671712455]}}, {"type": "Feature", "properties": {"norad_id": 45027, "name": "EUTELSAT KONNECT", "group": "eutelsat", "lat": 0.051186909212683, "lon": -155.73183049535737, "alt_km": 35785.667807704434, "timestamp": "2025-12-12T07:43:20.175169+00:00", "meta": {"OBJECT_NAME": "EUTELSAT KONNECT", "OBJECT_ID": "2020-005B", "EPOCH": "2025-12-11T22:06:18.182592", "MEAN_MOTION": 1.00269952, "ECCENTRICITY": 0.00016038, "INCLINATION": 0.0711, "RA_OF_ASC_NODE": 96.1171, "ARG_OF_PERICENTER": 190.7654, "MEAN_ANOMALY": 132.7585, "EPHEMERIS_TYPE": 0, "CLASSIFICATION_TYPE": "U", "NORAD_CAT_ID": 45027, "ELEMENT_SET_NO": 999, "REV_AT_EPOCH": 2245, "BSTAR": 0, "MEAN_MOTION_DOT": 5.8e-07, "MEAN_MOTION_DDOT": 0}, "tle": {"line1": "1 45027U 20005B   25345.92104378  .00000058  00000+0  00000+0 0  9999", "line2": "2 45027   0.0711  96.1171 0001603 190.7654 132.7585  1.00269952 22454"}}, "geometry": {"type": "Point", "coordinates": [-155.73183049535737, 0.051186909212683]}}, {"type": "Feature", "properties": {"norad_id": 49056, "name": "EUTELSAT QUANTUM", "group": "eutelsat", "lat": -0.02420529496670624, "lon": -115.22224835873747, "alt_km": 35772.36262293018, "timestamp": "2025-12-12T07:43:20.175181+00:00", "meta": {"OBJECT_NAME": "EUTELSAT QUANTUM", "OBJECT_ID": "2021-069B", "EPOCH": "2025-12-11T20:35:11.907744", "MEAN_MOTION": 1.00272243, "ECCENTRICITY": 0.00036556, "INCLINATION": 0.0202, "RA_OF_ASC_NODE": 34.154, "ARG_OF_PERICENTER": 239.6136, "MEAN_ANOMALY": 163.5431, "EPHEMERIS_TYPE": 0, "CLASSIFICATION_TYPE": "U", "NORAD_CAT_ID": 49056, "ELEMENT_SET_NO": 999, "REV_AT_EPOCH": 1604, "BSTAR": 0, "MEAN_MOTION_DOT": 1.34e-06, "MEAN_MOTION_DDOT": 0}, "tle": {"line1": "1 49056U 21069B   25345.85777671  .00000134  00000+0  00000+0 0  9995", "line2": "2 49056   0.0202  34.1540 0003655 239.6136 163.5431  1.00272243 16041"}}, "geometry": {"type": "Point", "coordinates": [-115.22224835873747, -0.02420529496670624]}}, {"type": "Feature", "properties": {"norad_id": 53765, "name": "EUTELSAT KONNECT VHTS", "group": "eutelsat", "lat": 0.047234169541440614, "lon": -160.19833475777764, "alt_km": 35777.53100496796, "timestamp": "2025-12-12T07:43:20.175207+00:00", "meta": {"OBJECT_NAME": "EUTELSAT KONNECT VHTS", "OBJECT_ID": "2022-110A", "EPOCH": "2025-12-11T22:05:03.302304", "MEAN_MOTION": 1.00272677, "ECCENTRICITY": 0.00025441, "INCLINATION": 0.0635, "RA_OF_ASC_NODE": 101.6051, "ARG_OF_PERICENTER": 137.8097, "MEAN_ANOMALY": 175.4434, "EPHEMERIS_TYPE": 0, "CLASSIFICATION_TYPE": "U", "NORAD_CAT_ID": 53765, "ELEMENT_SET_NO": 999, "REV_AT_EPOCH": 494, "BSTAR": 0, "MEAN_MOTION_DOT": 2.6e-07, "MEAN_MOTION_DDOT": 0}, "tle": {"line1": "1 53765U 22110A   25345.92017711  .00000026  00000+0  00000+0 0  9995", "line2": "2 53765   0.0635 101.6051 0002544 137.8097 175.4434  1.00272677  4943"}}, "geometry": {"type": "Point", "coordinates": [-160.19833475777764, 0.047234169541440614]}}, {"type": "Feature", "properties": {"norad_id": 54048, "name": "EUTELSAT HOTBIRD 13F", "group": "eutelsat", "lat": -0.06106013658974303, "lon": -149.91318332933554, "alt_km": 35794.70184606356, "timestamp": "2025-12-12T07:43:20.175221+00:00", "meta": {"OBJECT_NAME": "EUTELSAT HOTBIRD 13F", "OBJECT_ID": "2022-134A", "EPOCH": "2025-12-11T23:36:58.233312", "MEAN_MOTION": 1.00269374, "ECCENTRICITY": 0.00022408, "INCLINATION": 0.048, "RA_OF_ASC_NODE": 293.1086, "ARG_OF_PERICENTER": 64.7327, "MEAN_ANOMALY": 90.3432, "EPHEMERIS_TYPE": 0, "CLASSIFICATION_TYPE": "U", "NORAD_CAT_ID": 54048, "ELEMENT_SET_NO": 999, "REV_AT_EPOCH": 1150, "BSTAR": 0, "MEAN_MOTION_DOT": 9.6e-07, "MEAN_MOTION_DDOT": 0}, "tle": {"line1": "1 54048U 22134A   25345.98400733  .00000096  00000+0  00000+0 0  9999", "line2": "2 54048   0.0480 293.1086 0002240  64.7327  90.3432  1.00269374 11501"}}, "geometry": {"type": "Point", "coordinates": [-149.91318332933554, -0.06106013658974303]}}, {"type": "Feature", "properties": {"norad_id": 54225, "name": "EUTELSAT HOTBIRD 13G", "group": "eutelsat", "lat": -0.03307848313633638, "lon": -149.90365775045555, "alt_km": 35779.45592340391, "timestamp": "2025-12-12T07:43:20.175233+00:00", "meta": {"OBJECT_NAME": "EUTELSAT HOTBIRD 13G", "OBJECT_ID": "2022-146A", "EPOCH": "2025-12-11T22:08:38.732928", "MEAN_MOTION": 1.00271017, "ECCENTRICITY": 0.00018323, "INCLINATION": 0.0482, "RA_OF_ASC_NODE": 234.5148, "ARG_OF_PERICENTER": 307.6546, "MEAN_ANOMALY": 243.8576, "EPHEMERIS_TYPE": 0, "CLASSIFICATION_TYPE": "U", "NORAD_CAT_ID": 54225, "ELEMENT_SET_NO": 999, "REV_AT_EPOCH": 558, "BSTAR": 0, "MEAN_MOTION_DOT": 9.6e-07, "MEAN_MOTION_DDOT": 0}, "tle": {"line1": "1 54225U 22146A   25345.92267052  .00000096  00000+0  00000+0 0  9998", "line2": "2 54225   0.0482 234.5148 0001832 307.6546 243.8576  1.00271017  5588"}}, "geometry": {"type": "Point", "coordinates": [-149.90365775045555, -0.03307848313633638]}}, {"type": "Feature", "properties": {"norad_id": 54259, "name": "EUTELSAT 10B", "group": "eutelsat", "lat": 0.03907820900811637, "lon": -152.9356377931767, "alt_km": 35787.25085958349, "timestamp": "2025-12-12T07:43:20.175245+00:00", "meta": {"OBJECT_NAME": "EUTELSAT 10B", "OBJECT_ID": "2022-157A", "EPOCH": "2025-12-11T22:07:10.598880", "MEAN_MOTION": 1.00265128, "ECCENTRICITY": 5.068e-05, "INCLINATION": 0.0597, "RA_OF_ASC_NODE": 99.6112, "ARG_OF_PERICENTER": 35.707, "MEAN_ANOMALY": 287.3212, "EPHEMERIS_TYPE": 0, "CLASSIFICATION_TYPE": "U", "NORAD_CAT_ID": 54259, "ELEMENT_SET_NO": 999, "REV_AT_EPOCH": 1114, "BSTAR": 0, "MEAN_MOTION_DOT": 7.6e-07, "MEAN_MOTION_DDOT": 0}, "tle": {"line1": "1 54259U 22157A   25345.92165045  .00000076  00000+0  00000+0 0  9994", "line2": "2 54259   0.0597  99.6112 0000506  35.7070 287.3212  1.00265128 11146"}}, "geometry": {"type": "Point", "coordinates": [-152.9356377931767, 0.03907820900811637]}}, {"type": "Feature", "properties": {"norad_id": 59346, "name": "EUTELSAT 36D", "group": "eutelsat", "lat": -0.034034982242792534, "lon": -127.06686698394519, "alt_km": 35787.53629074725, "timestamp": "2025-12-12T07:43:20.175257+00:00", "meta": {"OBJECT_NAME": "EUTELSAT 36D", "OBJECT_ID": "2024-059A", "EPOCH": "2025-12-11T22:14:32.394048", "MEAN_MOTION": 1.00269358, "ECCENTRICITY": 4.243e-05, "INCLINATION": 0.0183, "RA_OF_ASC_NODE": 347.9639, "ARG_OF_PERICENTER": 2.3709, "MEAN_ANOMALY": 100.023, "EPHEMERIS_TYPE": 0, "CLASSIFICATION_TYPE": "U", "NORAD_CAT_ID": 59346, "ELEMENT_SET_NO": 999, "REV_AT_EPOCH": 627, "BSTAR": 0, "MEAN_MOTION_DOT": 0, "MEAN_MOTION_DDOT": 0}, "tle": {"line1": "1 59346U 24059A   25345.92676382  .00000000  00000+0  00000+0 0  9997", "line2": "2 59346   0.0183 347.9639 0000424   2.3709 100.0230  1.00269358  6278"}}, "geometry": {"type": "Point", "coordinates": [-127.06686698394519, -0.034034982242792534]}}]}